GLOBALSTAR M068 [-]     
1 32266U 07048D   24111.59169133  .00000004  00000+0  59791-3 0  9991
2 32266  51.9863 150.4287 0000677 281.2286 245.9147 12.62785631764166
GLOBALSTAR M079 [+]     
1 37188U 10054A   24112.15146510 -.00000065  00000+0  21511-3 0  9994
2 37188  52.0058 344.5311 0001015  87.4300  88.6815 12.62268644623838
GLOBALSTAR M074 [+]     
1 37189U 10054B   24111.85082279 -.00000049  00000+0  30601-3 0  9994
2 37189  52.0037 344.8350 0000744  85.6632  42.9703 12.62267445623723
GLOBALSTAR M076 [+]     
1 37190U 10054C   24111.86635204 -.00000050  00000+0  29909-3 0  9990
2 37190  52.0049 344.9192 0001016 115.9526 324.1905 12.62277006623447
GLOBALSTAR M077 [+]     
1 37191U 10054D   24111.85929756 -.00000072  00000+0  17946-3 0  9990
2 37191  52.0073 301.6766 0000762 107.0807 359.9634 12.62271871623813
GLOBALSTAR M075 [+]     
1 37192U 10054E   24112.21504378 -.00000073  00000+0  17328-3 0  9996
2 37192  51.9973  26.3484 0000754  71.2540  93.5626 12.62272757623081
GLOBALSTAR M073 [+]     
1 37193U 10054F   24111.72143126 -.00000072  00000+0  17601-3 0  9995
2 37193  52.0059 301.3498 0000877 105.7644 334.8970 12.62264086624488
GLOBALSTAR M083 [+]     
1 37739U 11033A   24111.57599984 -.00000076  00000+0  15275-3 0  9998
2 37739  51.9854 251.0994 0000665  92.1398 347.9950 12.62269012593489
GLOBALSTAR M088 [+]     
1 37740U 11033B   24111.31173358 -.00000069  00000+0  19199-3 0  9996
2 37740  51.9711 157.7517 0000384  80.8848 358.3361 12.62267189588993
GLOBALSTAR M091 [+]     
1 37741U 11033C   24112.19609836 -.00000071  00000+0  18259-3 0  9998
2 37741  51.9975 117.8567 0000531  50.3914  29.2881 12.62261782590153
GLOBALSTAR M085 [+]     
1 37742U 11033D   24111.33067503 -.00000085  00000+0  10575-3 0  9991
2 37742  51.9871  71.9027 0000678  52.3762 112.6009 12.62269735590295
GLOBALSTAR M081 [+]     
1 37743U 11033E   24111.35695935 -.00000081  00000+0  12525-3 0  9993
2 37743  51.9963  74.3490 0000760  63.9826 100.4124 12.62264401590445
GLOBALSTAR M089 [+]     
1 37744U 11033F   24111.93208679 -.00000077  00000+0  14899-3 0  9994
2 37744  51.9958  26.9079 0000682 104.9222 333.2810 12.62262211591362
GLOBALSTAR M084 [+]     
1 38040U 11080A   24111.80823594 -.00000095  00000+0  46390-4 0  9993
2 38040  52.0003 254.3470 0000774 137.3360  39.2633 12.62273592569323
GLOBALSTAR M080 [+]     
1 38041U 11080B   24111.60265917 -.00000096  00000+0  40777-4 0  9995
2 38041  52.0057 256.4332 0000999 134.8065 305.9746 12.62271493569568
GLOBALSTAR M082 [+]     
1 38042U 11080C   24111.45708644 -.00000086  00000+0  10003-3 0  9995
2 38042  52.0068 212.2784 0000400  44.4099  34.3204 12.62268325570117
GLOBALSTAR M092 [+]     
1 38043U 11080D   24111.83151030 -.00000041  00000+0  34976-3 0  9995
2 38043  52.0083 301.4921 0000601 112.2627 349.6673 12.62278746568615
GLOBALSTAR M090 [+]     
1 38044U 11080E   24111.73994432 -.00000085  00000+0  10369-3 0  9994
2 38044  51.9890 205.7699 0000403  91.2631  74.6304 12.62262153570264
GLOBALSTAR M086 [+]     
1 38045U 11080F   24111.76853126 -.00000085  00000+0  10557-3 0  9991
2 38045  51.9886 206.2005 0001436 110.2100  65.2477 12.62269745570213
GLOBALSTAR M097 [+]     
1 39072U 13005A   24111.20232199 -.00000079  00000+0  13748-3 0  9999
2 39072  52.0024 122.0424 0000524  65.4662 294.6260 12.62262483517470
GLOBALSTAR M093 [+]     
1 39073U 13005B   24112.04672703 -.00000069  00000+0  19271-3 0  9998
2 39073  51.9790 113.4486 0000628  57.8383 302.2544 12.62263373517572
GLOBALSTAR M094 [+]     
1 39074U 13005C   24111.80921607 -.00000078  00000+0  14499-3 0  9999
2 39074  51.9985  28.1318 0000880  68.0880 292.0080 12.62264581519037
GLOBALSTAR M096 [+]     
1 39075U 13005D   24112.05986876 -.00000088  00000+0  87654-4 0  9992
2 39075  52.0074  75.5517 0000772  54.6927 305.4012 12.62264516518333
GLOBALSTAR M078 [+]     
1 39076U 13005E   24111.55895990 -.00000018  00000+0  47669-3 0  9997
2 39076  51.9852 162.1686 0000766 338.7393  21.3442 12.62262678516754
GLOBALSTAR M095 [+]     
1 39077U 13005F   24111.42617108 -.00000057  00000+0  25913-3 0  9998
2 39077  51.9780 159.9741 0000617  27.8777 332.2122 12.62265438516383
GLOBALSTAR M087 [+]     
1 52888U 22064A   24111.79633577 -.00000076  00000+0  98688-4 0  9997
2 52888  51.9773  48.4980 0008912 216.8853 143.1436 13.37570382 89841
